[{"OBJECT_NAME":"STARLINK-4360","OBJECT_ID":"2022-099T","EPOCH":"2026-03-09T21:25:07.915872","MEAN_MOTION":15.01254837,"ECCENTRICITY":2.719e-5,"INCLINATION":97.6052,"RA_OF_ASC_NODE":190.4373,"ARG_OF_PERICENTER":3.0306,"MEAN_ANOMALY":357.0919,"EPHEMERIS_TYPE":0,"CLASSIFICATION_TYPE":"U","NORAD_CAT_ID":53482,"ELEMENT_SET_NO":999,"REV_AT_EPOCH":19601,"BSTAR":7.3224794e-5,"MEAN_MOTION_DOT":8.82e-6,"MEAN_MOTION_DDOT":0},{"OBJECT_NAME":"COSMOS 374 DEB","OBJECT_ID":"1970-089CW","EPOCH":"2026-03-09T03:15:05.416704","MEAN_MOTION":14.81622526,"ECCENTRICITY":0.02351408,"INCLINATION":62.872,"RA_OF_ASC_NODE":339.5893,"ARG_OF_PERICENTER":12.2958,"MEAN_ANOMALY":348.3731,"EPHEMERIS_TYPE":0,"CLASSIFICATION_TYPE":"U","NORAD_CAT_ID":14122,"ELEMENT_SET_NO":999,"REV_AT_EPOCH":22578,"BSTAR":0.0042555676,"MEAN_MOTION_DOT":0.00054686,"MEAN_MOTION_DDOT":0}]
